IRIDIUM 155             
1 43573U 18061E   22335.18415168  .00000225  00000+0  73151-4 0  9996
2 43573  86.3996 237.4116 0001759  82.4056 277.7340 14.34216671227888
IRIDIUM 154             
1 43574U 18061F   22335.44419261  .00000224  00000+0  73006-4 0  9992
2 43574  86.4001 237.3741 0002299  80.3949 279.7507 14.34221167227971
IRIDIUM 163             
1 43575U 18061G   22335.49494676  .00000220  00000+0  71497-4 0  9999
2 43575  86.3997 237.3081 0002232  92.4093 267.7358 14.34219229227958
IRIDIUM 156             
1 43576U 18061H   22335.46956723  .00000213  00000+0  68923-4 0  9995
2 43576  86.3998 237.3242 0001910  92.0924 268.0490 14.34218812227947
IRIDIUM 164             
1 43577U 18061J   22335.45055147  .00000219  00000+0  71258-4 0  9996
2 43577  86.3999 237.3528 0002304  83.7796 276.3662 14.34218700227981
IRIDIUM 159             
1 43578U 18061K   22334.79091884  .00000211  00000+0  68339-4 0  9999
2 43578  86.3998 237.5923 0002227  82.2706 277.8742 14.34217696227855
IRIDIUM 180             
1 43922U 19002A   22335.55784920  .00000171  00000+0  54146-4 0  9999
2 43922  86.3990 174.2410 0002501  86.3465 273.8016 14.34220288203574
IRIDIUM 176             
1 43923U 19002B   22334.98599888  .00000559  00000+0  84790-4 0  9991
2 43923  86.6126 174.5200 0002276  88.7867 271.3611 14.72252736208833
IRIDIUM 168             
1 43924U 19002C   22335.27244164  .00000183  00000+0  58198-4 0  9995
2 43924  86.3992 174.4008 0002230  84.2103 275.9347 14.34219054203511
IRIDIUM 173             
1 43925U 19002D   22335.53884013  .00000182  00000+0  57841-4 0  9991
2 43925  86.3989 174.2315 0002228  86.2942 273.8508 14.34217865203533
IRIDIUM 169             
1 43926U 19002E   22335.58440998  .00000241  00000+0  72421-4 0  9994
2 43926  86.4268 205.7607 0002437 299.3595  60.7359 14.38620971204248
IRIDIUM 172             
1 43927U 19002F   22335.53250051  .00000180  00000+0  57147-4 0  9999
2 43927  86.3990 174.2383 0002377  85.9554 274.1913 14.34219061203547
IRIDIUM 175             
1 43928U 19002G   22334.84375538  .00000585  00000+0  88783-4 0  9990
2 43928  86.6130 174.4149 0002281  85.9681 274.1797 14.72261860208804
IRIDIUM 171             
1 43929U 19002H   22335.30415844  .00000189  00000+0  60327-4 0  9992
2 43929  86.3999 174.4960 0002229  84.0724 276.0726 14.34217149203500
IRIDIUM 170             
1 43930U 19002J   22335.26396878  .00000575  00000+0  87234-4 0  9999
2 43930  86.6125 174.4091 0002339  88.0336 272.1149 14.72254802208887
IRIDIUM 167             
1 43931U 19002K   22335.29781401  .00000175  00000+0  55575-4 0  9992
2 43931  86.3991 174.3471 0002418  85.5993 274.5479 14.34218907203506
